COSMOS 2419 (714)       
1 28915U 05050A   17247.39477896  .00000023  00000-0  00000-0 0  9994
2 28915  65.5348  63.1849 0015975 358.7100   9.2294  2.13106762 91026
COSMOS 2425 (716)       
1 29670U 06062A   17247.40254635  .00000022  00000-0  10000-3 0  9996
2 29670  65.4212 302.1925 0019740 340.5603  84.9966  2.13104971 83225
COSMOS 2426 (717)       
1 29671U 06062B   17247.44827722  .00000022  00000-0  10000-3 0  9994
2 29671  65.4389 302.2824 0019080 170.2585 148.1298  2.13102955 83225
COSMOS 2424 (715)       
1 29672U 06062C   17247.29328306  .00000022  00000-0  10000-3 0  9992
2 29672  65.4227 302.2085 0018468 169.3719 205.2565  2.13102382 83229
COSMOS 2433 (720)       
1 32275U 07052A   17247.24854818  .00000023  00000-0  10000-3 0  9993
2 32275  65.5507  62.9695 0000713 198.5210 300.8641  2.13104605 76730
COSMOS 2432 (719)       
1 32276U 07052B   17247.35417182  .00000023  00000-0  10000-3 0  9995
2 32276  65.5614  63.0381 0010140 346.7901 186.3489  2.13103985 76730
COSMOS 2434 (721)       
1 32393U 07065A   17247.23817354  .00000023  00000-0  00000-0 0  9997
2 32393  65.0371 301.3095 0004196 144.6542 235.9902  2.13102953 75447
COSMOS 2436 (723)       
1 32395U 07065C   17247.26588538  .00000023  00000-0  10000-3 0  9995
2 32395  65.0468 301.3559 0013068 354.0739  96.9167  2.13104359 75376
COSMOS 2443 (725)       
1 33379U 08046B   17247.62232963  .00000021  00000-0  00000-0 0  9990
2 33379  65.4810  62.3324 0012777 175.5795 149.6110  2.13099581 69593
COSMOS 2456 (730)       
1 36111U 09070A   17247.37311934 -.00000001  00000-0  00000-0 0  9992
2 36111  64.1814 180.8692 0005648 304.4839 351.0621  2.13102996 60104
COSMOS 2457 (733)       
1 36112U 09070B   17247.44083468 -.00000001  00000-0  00000-0 0  9999
2 36112  64.1636 180.7837 0005989 182.9197 292.7776  2.13101778 60111
COSMOS 2458 (734)       
1 36113U 09070C   17247.39045836 -.00000001  00000-0  10000-3 0  9995
2 36113  64.1690 180.7942 0002121 317.1420 167.9707  2.13101912 60112
COSMOS 2459 (731)       
1 36400U 10007A   17246.85405639  .00000021  00000-0  10000-3 0  9998
2 36400  65.4586  62.0786 0026754 357.2802  60.8952  2.13102196 58456
COSMOS 2461 (735)       
1 36401U 10007B   17247.39840830  .00000021  00000-0  10000-3 0  9995
2 36401  65.4521  62.0382 0008750  75.9567 310.4465  2.13102222 58460
COSMOS 2460 (732)       
1 36402U 10007C   17247.56688266  .00000021  00000-0  10000-3 0  9998
2 36402  65.4421  62.0031 0002406  95.2376 101.5213  2.13101686 58469
COSMOS 2465 (737)       
1 37138U 10041B   17247.32457956  .00000022  00000-0  00000-0 0  9994
2 37138  64.6344 301.2535 0036593 171.6240 319.0140  2.13097500 54539
COSMOS 2464 (736)       
1 37139U 10041C   17247.44239176  .00000022  00000-0  00000-0 0  9990
2 37139  64.6421 301.2505 0021051   9.8912  35.1561  2.13102647 54536
COSMOS 2471 (701K)      
1 37372U 11009A   17247.59777542  .00000020  00000-0  00000-0 0  9992
2 37372  65.4405  61.9494 0006936 222.5380 135.7468  2.13107632 50731
COSMOS 2474 (742)       
1 37829U 11055A   17247.40284569 -.00000001  00000-0  00000-0 0  9992
2 37829  64.5057 181.4660 0009827 252.0685 285.7165  2.13101970 46107
COSMOS 2476 (744)       
1 37867U 11064A   17247.34242487 -.00000001  00000-0  00000-0 0  9990
2 37867  64.4852 181.5376 0019137 245.5252 291.8694  2.13102000 45455
COSMOS 2477 (745)       
1 37868U 11064B   17247.48545369  .00000000  00000-0  00000-0 0  9999
2 37868  64.4939 181.5784 0017056 246.8868 219.3140  2.13101906 45411
COSMOS 2475 (743)       
1 37869U 11064C   17247.30790834 -.00000001  00000-0  00000-0 0  9992
2 37869  64.5017 181.5753 0021896 270.7350  15.7291  2.13102229 45419
COSMOS 2485 (747)       
1 39155U 13019A   17247.37004715 -.00000001  00000-0  00000-0 0  9997
2 39155  64.6553 181.5836 0019550 240.4824   3.0994  2.13102084 33923
COSMOS 2492 (754)       
1 39620U 14012A   17247.44739069  .00000020  00000-0  10000-3 0  9997
2 39620  65.3334  61.9337 0013335 338.9982 358.2346  2.13103403 26873
COSMOS 2500 (755)       
1 40001U 14032A   17247.45098556  .00000020  00000-0  00000-0 0  9990
2 40001  65.2727  61.9239 0005709 182.9786  19.9011  2.13102809 25091
COSMOS 2501 (702K)      
1 40315U 14075A   17247.45608971  .00000019  00000-0  00000-0 0  9991
2 40315  64.3687 302.5642 0016807 209.2345 162.5983  2.13098657 21501
COSMOS 2514 (751)       
1 41330U 16008A   17247.43063968  .00000020  00000-0  00000-0 0  9998
2 41330  65.0730  62.0483 0008414 201.7103 165.7437  2.13103355 12265
COSMOS 2516 (753)       
1 41554U 16032A   17247.26050769  .00000020  00000-0  00000-0 0  9999
2 41554  64.5883 302.3568 0014057 219.5431 269.5719  2.13101596  9864
